{"epoch":1784762836,"count":18316,"objects":[{"id":"65508","name":"STARLINK-35119","type":"PAYLOAD","l1":"1 65508U 25198S   26203.44189902  .00036695  00000-0  10917-2 0  9998","l2":"2 65508  53.1613   2.7941 0000963  96.3510 263.7602 15.34404793 49289"},{"id":"65509","name":"STARLINK-35168","type":"PAYLOAD","l1":"1 65509U 25198T   26201.73153666  .00011719  00000-0  35745-3 0  9994","l2":"2 65509  53.1604  10.6012 0001929 100.1554 259.9666 15.34398363 49026"},{"id":"65510","name":"STARLINK-35122","type":"PAYLOAD","l1":"1 65510U 25198U   26202.48791466  .00015683  00000-0  47419-3 0  9990","l2":"2 65510  53.1588   6.7887 0001205  96.7319 263.3820 15.34408799 49140"},{"id":"65511","name":"STARLINK-35124","type":"PAYLOAD","l1":"1 65511U 25198V   26202.86610735  .00027119  00000-0  81027-3 0  9992","l2":"2 65511  53.1591   4.8863 0000970  84.6404 275.4709 15.34423499 49196"},{"id":"65512","name":"STARLINK-35149","type":"PAYLOAD","l1":"1 65512U 25198W   26202.83673960  .00024996  00000-0  74797-3 0  9995","l2":"2 65512  53.1612   5.4075 0001302  85.9636 274.1516 15.34420922 49194"},{"id":"65513","name":"STARLINK-35019","type":"PAYLOAD","l1":"1 65513U 25198X   26202.84304577  .00034193  00000-0  10176-2 0  9992","l2":"2 65513  53.1628   5.4519 0000319  29.8046 330.2974 15.34430090 49193"},{"id":"65514","name":"STARLINK-35026","type":"PAYLOAD","l1":"1 65514U 25198Y   26203.43818488  .00021084  00000-0  63315-3 0  9999","l2":"2 65514  53.1612   4.1846 0001949 299.3001  60.7806 15.34412527 49263"},{"id":"65515","name":"STARLINK-35241","type":"PAYLOAD","l1":"1 65515U 25198Z   26202.83941586  .00019935  00000-0  59936-3 0  9995","l2":"2 65515  53.1609   7.5523 0000848  84.9576 275.1524 15.34410075 49165"},{"id":"65516","name":"STARLINK-35216","type":"PAYLOAD","l1":"1 65516U 25198AA  26202.87301239  .00043996  00000-0  13079-2 0  9996","l2":"2 65516  53.1619   7.0552 0000802  31.7584 328.3467 15.34344331 49172"},{"id":"65517","name":"STARLINK-35228","type":"PAYLOAD","l1":"1 65517U 25198AB  26202.87452312  .00015364  00000-0  46475-3 0  9991","l2":"2 65517  53.1593   4.9337 0001144  95.0885 265.0248 15.34410401 49208"},{"id":"65518","name":"STARLINK-35232","type":"PAYLOAD","l1":"1 65518U 25198AC  26201.88073805  .00017170  00000-0  51789-3 0  9999","l2":"2 65518  53.1606  10.1039 0001092  99.0758 261.0368 15.34415320 49043"},{"id":"65519","name":"STARLINK-35164","type":"PAYLOAD","l1":"1 65519U 25198AD  26203.43767679  .00023353  00000-0  69934-3 0  9993","l2":"2 65519  53.1611   2.7575 0001043  91.5883 268.5239 15.34436885 49288"},{"id":"65520","name":"STARLINK-35112","type":"PAYLOAD","l1":"1 65520U 25200A   26203.18759793  .00027047  00000-0  83665-3 0  9990","l2":"2 65520  97.2842 270.5162 0000723  87.5191 272.6135 15.33462484 49399"},{"id":"65521","name":"STARLINK-35187","type":"PAYLOAD","l1":"1 65521U 25200B   26203.16856850  .00011629  00000-0  36190-3 0  9991","l2":"2 65521  97.2831 270.4039 0000905  84.7350 275.3996 15.33452149 49390"},{"id":"65522","name":"STARLINK-35188","type":"PAYLOAD","l1":"1 65522U 25200C   26203.14953718  .00031530  00000-0  97434-3 0  9992","l2":"2 65522  97.2837 270.4288 0001063  87.2901 272.8463 15.33464003 49392"},{"id":"65523","name":"STARLINK-35078","type":"PAYLOAD","l1":"1 65523U 25200D   26203.19031892 -.00008987  00000-0 -27659-3 0  9992","l2":"2 65523  97.2834 270.5194 0001124  52.4631 307.6714 15.33420461 49407"},{"id":"65524","name":"STARLINK-35055","type":"PAYLOAD","l1":"1 65524U 25200E   26203.45677757  .00012214  00000-0  38012-3 0  9999","l2":"2 65524  97.2832 270.7657 0001466  92.7490 267.3921 15.33438047 49446"},{"id":"65525","name":"STARLINK-35057","type":"PAYLOAD","l1":"1 65525U 25200F   26203.45405169  .00020810  00000-0  64455-3 0  9997","l2":"2 65525  97.2829 270.7706 0001382  86.7509 273.3892 15.33474333 49441"},{"id":"65526","name":"STARLINK-34674","type":"PAYLOAD","l1":"1 65526U 25200G   26203.42686955  .00021258  00000-0  65875-3 0  9993","l2":"2 65526  97.2843 270.6642 0001174 110.4410 249.6959 15.33454562 49443"},{"id":"65527","name":"STARLINK-35067","type":"PAYLOAD","l1":"1 65527U 25200H   26203.16041067  .00024952  00000-0  77230-3 0  9996","l2":"2 65527  97.2842 270.4100 0001087 102.0744 258.0620 15.33460464 49380"},{"id":"65528","name":"STARLINK-35063","type":"PAYLOAD","l1":"1 65528U 25200J   26203.15225107  .00011599  00000-0  36100-3 0  9999","l2":"2 65528  97.2841 270.4258 0001142  89.0673 271.0701 15.33449610 49386"},{"id":"65529","name":"STARLINK-35077","type":"PAYLOAD","l1":"1 65529U 25200K   26203.44046697  .00005401  00000-0  16951-3 0  9994","l2":"2 65529  97.2833 270.6391 0001725  99.9143 260.2294 15.33441789 49439"},{"id":"65530","name":"STARLINK-35152","type":"PAYLOAD","l1":"1 65530U 25200L   26203.42415422  .00015970  00000-0  49569-3 0  9993","l2":"2 65530  97.2835 270.6659 0001798  95.6442 264.5005 15.33460909 49437"},{"id":"65531","name":"STARLINK-35064","type":"PAYLOAD","l1":"1 65531U 25200M   26203.43502958  .00011474  00000-0  35725-3 0  9990","l2":"2 65531  97.2838 270.6509 0001257  83.8434 276.2952 15.33438219 49435"},{"id":"65532","name":"STARLINK-35170","type":"PAYLOAD","l1":"1 65532U 25200N   26203.46221599  .00021152  00000-0  65525-3 0  9998","l2":"2 65532  97.2832 270.7674 0001648  99.4865 260.6565 15.33465139 49448"},{"id":"65533","name":"STARLINK-35172","type":"PAYLOAD","l1":"1 65533U 25200P   26203.14137807  .00032761  00000-0  10114-2 0  9993","l2":"2 65533  97.2822 270.4322 0001591  95.3649 264.7775 15.33484200 49399"},{"id":"65534","name":"STARLINK-35125","type":"PAYLOAD","l1":"1 65534U 25200Q   26203.14409719  .00033308  00000-0  10287-2 0  9997","l2":"2 65534  97.2827 270.4316 0001420  85.8864 274.2541 15.33469240 49396"},{"id":"65535","name":"STARLINK-35133","type":"PAYLOAD","l1":"1 65535U 25200R   26203.19847512  .00012191  00000-0  37916-3 0  9996","l2":"2 65535  97.2822 270.5121 0002697 122.3965 237.7539 15.33455695 49405"},{"id":"65536","name":"STARLINK-35044","type":"PAYLOAD","l1":"1 65536U 25200S   26203.44318810  .00014401  00000-0  44754-3 0  9993","l2":"2 65536  97.2833 270.7889 0001649  82.3287 277.8143 15.33444345 49449"},{"id":"65537","name":"STARLINK-35136","type":"PAYLOAD","l1":"1 65537U 25200T   26203.44590503  .00009242  00000-0  28824-3 0  9992","l2":"2 65537  97.2843 270.7794 0001395  89.0382 271.1021 15.33445238 49358"}]}