OBJECT_NAME,OBJECT_ID,EPOCH,MEAN_MOTION,ECCENTRICITY,INCLINATION,RA_OF_ASC_NODE,ARG_OF_PERICENTER,MEAN_ANOMALY,EPHEMERIS_TYPE,CLASSIFICATION_TYPE,NORAD_CAT_ID,ELEMENT_SET_NO,REV_AT_EPOCH,BSTAR,MEAN_MOTION_DOT,MEAN_MOTION_DDOT
STARLINK-35119,2025-198S,2026-07-22T10:36:20.075328,15.34404793,.00009629,53.1613,2.7941,96.3510,263.7602,0,U,65508,999,4928,.10917058E-2,.36695E-3,0
STARLINK-35168,2025-198T,2026-07-20T17:33:24.767424,15.34398363,.00019294,53.1604,10.6012,100.1554,259.9666,0,U,65509,999,4902,.35745436E-3,.11719E-3,0
STARLINK-35122,2025-198U,2026-07-21T11:42:35.826624,15.34408799,.0001205,53.1588,6.7887,96.7319,263.3820,0,U,65510,999,4914,.47418918E-3,.15683E-3,0
STARLINK-35124,2025-198V,2026-07-21T20:47:11.675040,15.34423499,.00009703,53.1591,4.8863,84.6404,275.4709,0,U,65511,999,4919,.8102692E-3,.27119E-3,0
STARLINK-35149,2025-198W,2026-07-21T20:04:54.301440,15.34420922,.0001302,53.1612,5.4075,85.9636,274.1516,0,U,65512,999,4919,.74796748E-3,.24996E-3,0
STARLINK-35019,2025-198X,2026-07-21T20:13:59.154528,15.34430090,.00003189,53.1628,5.4519,29.8046,330.2974,0,U,65513,999,4919,.10175521E-2,.34193E-3,0
STARLINK-35026,2025-198Y,2026-07-22T10:30:59.173632,15.34412527,.00019489,53.1612,4.1846,299.3001,60.7806,0,U,65514,999,4926,.6331457E-3,.21084E-3,0
STARLINK-35241,2025-198Z,2026-07-21T20:08:45.530304,15.34410075,.0000848,53.1609,7.5523,84.9576,275.1524,0,U,65515,999,4916,.59936294E-3,.19935E-3,0
STARLINK-35216,2025-198AA,2026-07-21T20:57:08.270496,15.34344331,.00008016,53.1619,7.0552,31.7584,328.3467,0,U,65516,999,4917,.13079372E-2,.43996E-3,0
STARLINK-35228,2025-198AB,2026-07-21T20:59:18.797568,15.34410401,.00011442,53.1593,4.9337,95.0885,265.0248,0,U,65517,999,4920,.46475223E-3,.15364E-3,0
STARLINK-35232,2025-198AC,2026-07-20T21:08:15.767520,15.34415320,.0001092,53.1606,10.1039,99.0758,261.0368,0,U,65518,999,4904,.5178929E-3,.1717E-3,0
STARLINK-35164,2025-198AD,2026-07-22T10:30:15.274656,15.34436885,.00010435,53.1611,2.7575,91.5883,268.5239,0,U,65519,999,4928,.69934251E-3,.23353E-3,0
STARLINK-35112,2025-200A,2026-07-22T04:30:08.461152,15.33462484,.00007227,97.2842,270.5162,87.5191,272.6135,0,U,65520,999,4939,.83664807E-3,.27047E-3,0
STARLINK-35187,2025-200B,2026-07-22T04:02:44.318400,15.33452149,.00009048,97.2831,270.4039,84.7350,275.3996,0,U,65521,999,4939,.36189843E-3,.11629E-3,0
STARLINK-35188,2025-200C,2026-07-22T03:35:20.012352,15.33464003,.00010632,97.2837,270.4288,87.2901,272.8463,0,U,65522,999,4939,.97433675E-3,.3153E-3,0
STARLINK-35078,2025-200D,2026-07-22T04:34:03.554688,15.33420461,.00011236,97.2834,270.5194,52.4631,307.6714,0,U,65523,999,4940,-.27659025E-3,-.8987E-4,0
STARLINK-35055,2025-200E,2026-07-22T10:57:45.582048,15.33438047,.00014665,97.2832,270.7657,92.7490,267.3921,0,U,65524,999,4944,.38012281E-3,.12214E-3,0
STARLINK-35057,2025-200F,2026-07-22T10:53:50.066016,15.33474333,.0001382,97.2829,270.7706,86.7509,273.3892,0,U,65525,999,4944,.64455183E-3,.2081E-3,0
STARLINK-34674,2025-200G,2026-07-22T10:14:41.529120,15.33454562,.00011745,97.2843,270.6642,110.4410,249.6959,0,U,65526,999,4944,.65875427E-3,.21258E-3,0
STARLINK-35067,2025-200H,2026-07-22T03:50:59.481888,15.33460464,.00010866,97.2842,270.4100,102.0744,258.0620,0,U,65527,999,4938,.77230322E-3,.24952E-3,0
STARLINK-35063,2025-200J,2026-07-22T03:39:14.492448,15.33449610,.00011422,97.2841,270.4258,89.0673,271.0701,0,U,65528,999,4938,.36099514E-3,.11599E-3,0
STARLINK-35077,2025-200K,2026-07-22T10:34:16.346208,15.33441789,.00017246,97.2833,270.6391,99.9143,260.2294,0,U,65529,999,4943,.16950644E-3,.5401E-4,0
STARLINK-35152,2025-200L,2026-07-22T10:10:46.924608,15.33460909,.00017981,97.2835,270.6659,95.6442,264.5005,0,U,65530,999,4943,.49569416E-3,.1597E-3,0
STARLINK-35064,2025-200M,2026-07-22T10:26:26.555712,15.33438219,.00012575,97.2838,270.6509,83.8434,276.2952,0,U,65531,999,4943,.35725432E-3,.11474E-3,0
STARLINK-35170,2025-200N,2026-07-22T11:05:35.461536,15.33465139,.0001648,97.2832,270.7674,99.4865,260.6565,0,U,65532,999,4944,.65525211E-3,.21152E-3,0
STARLINK-35172,2025-200P,2026-07-22T03:23:35.065248,15.33484200,.00015908,97.2822,270.4322,95.3649,264.7775,0,U,65533,999,4939,.10114442E-2,.32761E-3,0
STARLINK-35125,2025-200Q,2026-07-22T03:27:29.997216,15.33469240,.00014204,97.2827,270.4316,85.8864,274.2541,0,U,65534,999,4939,.10287234E-2,.33308E-3,0
STARLINK-35133,2025-200R,2026-07-22T04:45:48.250368,15.33455695,.00026967,97.2822,270.5121,122.3965,237.7539,0,U,65535,999,4940,.37916469E-3,.12191E-3,0
STARLINK-35044,2025-200S,2026-07-22T10:38:11.451840,15.33444345,.0001649,97.2833,270.7889,82.3287,277.8143,0,U,65536,999,4944,.44753832E-3,.14401E-3,0
STARLINK-35136,2025-200T,2026-07-22T10:42:06.194592,15.33445238,.00013948,97.2843,270.7794,89.0382,271.1021,0,U,65537,999,4935,.28824236E-3,.9242E-4,0
